start=new Date('2021-12-15T00:00:00.000Z').valueOf();
sats=[{"CENTER_NAME":"EARTH","GP_ID":"191694901","DECAY_DATE":null,"MEAN_ANOMALY":"299.6056","FILE":"3240057","ECCENTRICITY":"0.00020450","NORAD_CAT_ID":"47805","REV_AT_EPOCH":"4381","TLE_LINE1":"1 47805U 21018U   21348.37645174  .00000825  00000-0  74266-4 0  9995","RA_OF_ASC_NODE":"333.2774","MEAN_MOTION":"15.06400394","OBJECT_ID":"2021-018U","TIME_SYSTEM":"UTC","EPOCH":"2021-12-14T09:02:05.430336","COUNTRY_CODE":"US","PERIOD":"95.592","INCLINATION":"53.0563","LAUNCH_DATE":"2021-03-11","BSTAR":"0.00007426600000","RCS_SIZE":"MEDIUM","MEAN_MOTION_DOT":"0.00000825","PERIAPSIS":"545.796","OBJECT_NAME":"STARLINK-2386","ARG_OF_PERICENTER":"60.5137","OBJECT_TYPE":"PAYLOAD","CLASSIFICATION_TYPE":"U","SEMIMAJOR_AXIS":"6925.347","EPHEMERIS_TYPE":"0","APOAPSIS":"548.629","MEAN_ELEMENT_THEORY":"SGP4","REF_FRAME":"TEME","SITE":"AFETR","TLE_LINE2":"2 47805  53.0563 333.2774 0002045  60.5137 299.6056 15.06400394 43815","ELEMENT_SET_NO":"999","MEAN_MOTION_DDOT":"0.0000000000000"},{"SITE":"AFETR","TLE_LINE2":"2 47806  53.0550 346.6892 0001645  56.9251 303.1895 15.06387285 43312","ELEMENT_SET_NO":"999","MEAN_MOTION_DDOT":"0.0000000000000","APOAPSIS":"548.392","MEAN_ELEMENT_THEORY":"SGP4","REF_FRAME":"TEME","EPHEMERIS_TYPE":"0","SEMIMAJOR_AXIS":"6925.388","CLASSIFICATION_TYPE":"U","OBJECT_TYPE":"PAYLOAD","PERIAPSIS":"546.113","MEAN_MOTION_DOT":"-0.00001116","OBJECT_NAME":"STARLINK-2387","ARG_OF_PERICENTER":"56.9251","BSTAR":"-0.00005608300000","RCS_SIZE":"LARGE","LAUNCH_DATE":"2021-03-11","PERIOD":"95.593","INCLINATION":"53.0550","TIME_SYSTEM":"UTC","COUNTRY_CODE":"US","EPOCH":"2021-12-14T17:37:36.251904","MEAN_MOTION":"15.06387285","RA_OF_ASC_NODE":"346.6892","OBJECT_ID":"2021-018V","TLE_LINE1":"1 47806U 21018V   21348.73444736 -.00001116  00000-0 -56083-4 0  9990","ECCENTRICITY":"0.00016450","NORAD_CAT_ID":"47806","REV_AT_EPOCH":"4331","DECAY_DATE":null,"MEAN_ANOMALY":"303.1895","FILE":"3240215","GP_ID":"191699992","CENTER_NAME":"EARTH"},{"TLE_LINE1":"1 47807U 21018W   21348.32670735  .00000894  00000-0  78882-4 0  9997","MEAN_MOTION":"15.06398340","OBJECT_ID":"2021-018W","RA_OF_ASC_NODE":"323.5099","COUNTRY_CODE":"US","EPOCH":"2021-12-14T07:50:27.515040","TIME_SYSTEM":"UTC","PERIOD":"95.592","INCLINATION":"53.0513","GP_ID":"191695903","CENTER_NAME":"EARTH","DECAY_DATE":null,"FILE":"3240057","MEAN_ANOMALY":"299.2587","ECCENTRICITY":"0.00016840","REV_AT_EPOCH":"4393","NORAD_CAT_ID":"47807","OBJECT_TYPE":"PAYLOAD","SEMIMAJOR_AXIS":"6925.354","EPHEMERIS_TYPE":"0","CLASSIFICATION_TYPE":"U","APOAPSIS":"548.385","MEAN_ELEMENT_THEORY":"SGP4","REF_FRAME":"TEME","ELEMENT_SET_NO":"999","TLE_LINE2":"2 47807  53.0513 323.5099 0001684  60.8570 299.2587 15.06398340 43931","SITE":"AFETR","MEAN_MOTION_DDOT":"0.0000000000000","LAUNCH_DATE":"2021-03-11","RCS_SIZE":"LARGE","BSTAR":"0.00007888200000","PERIAPSIS":"546.052","MEAN_MOTION_DOT":"0.00000894","ARG_OF_PERICENTER":"60.8570","OBJECT_NAME":"STARLINK-2388"},{"LAUNCH_DATE":"2021-03-11","BSTAR":"0.00009622000000","RCS_SIZE":"LARGE","OBJECT_NAME":"STARLINK-2389","ARG_OF_PERICENTER":"62.2542","PERIAPSIS":"545.939","MEAN_MOTION_DOT":"0.00001152","OBJECT_TYPE":"PAYLOAD","CLASSIFICATION_TYPE":"U","SEMIMAJOR_AXIS":"6925.350","EPHEMERIS_TYPE":"0","MEAN_ELEMENT_THEORY":"SGP4","REF_FRAME":"TEME","APOAPSIS":"548.490","MEAN_MOTION_DDOT":"0.0000000000000","SITE":"AFETR","TLE_LINE2":"2 47808  53.0567 348.6896 0001842  62.2542 297.8634 15.06399683 43641","ELEMENT_SET_NO":"999","GP_ID":"191694152","CENTER_NAME":"EARTH","MEAN_ANOMALY":"297.8634","FILE":"3240057","DECAY_DATE":null,"NORAD_CAT_ID":"47808","REV_AT_EPOCH":"4364","ECCENTRICITY":"0.00018420","TLE_LINE1":"1 47808U 21018X   21348.28938405  .00001152  00000-0  96220-4 0  9998","OBJECT_ID":"2021-018X","RA_OF_ASC_NODE":"348.6896","MEAN_MOTION":"15.06399683","TIME_SYSTEM":"UTC","EPOCH":"2021-12-14T06:56:42.781920","COUNTRY_CODE":"US","PERIOD":"95.592","INCLINATION":"53.0567"},{"EPOCH":"2021-12-14T10:15:05.786784","COUNTRY_CODE":"US","TIME_SYSTEM":"UTC","PERIOD":"95.592","INCLINATION":"53.0561","TLE_LINE1":"1 47809U 21018Y   21348.42715031  .00001060  00000-0  90060-4 0  9997","RA_OF_ASC_NODE":"353.0515","MEAN_MOTION":"15.06397186","OBJECT_ID":"2021-018Y","REV_AT_EPOCH":"4359","NORAD_CAT_ID":"47809","ECCENTRICITY":"0.00018380","CENTER_NAME":"EARTH","GP_ID":"191694402","FILE":"3240057","MEAN_ANOMALY":"300.1270","DECAY_DATE":null,"MEAN_ELEMENT_THEORY":"SGP4","REF_FRAME":"TEME","APOAPSIS":"548.495","MEAN_MOTION_DDOT":"0.0000000000000","ELEMENT_SET_NO":"999","SITE":"AFETR","TLE_LINE2":"2 47809  53.0561 353.0515 0001838  59.9901 300.1270 15.06397186 43595","OBJECT_TYPE":"PAYLOAD","CLASSIFICATION_TYPE":"U","SEMIMAJOR_AXIS":"6925.357","EPHEMERIS_TYPE":"0","RCS_SIZE":"LARGE","BSTAR":"0.00009006000000","ARG_OF_PERICENTER":"59.9901","OBJECT_NAME":"STARLINK-2390","PERIAPSIS":"545.949","MEAN_MOTION_DOT":"0.00001060","LAUNCH_DATE":"2021-03-11"},{"DECAY_DATE":null,"FILE":"3240057","MEAN_ANOMALY":"298.5624","GP_ID":"191695653","CENTER_NAME":"EARTH","ECCENTRICITY":"0.00018280","REV_AT_EPOCH":"4345","NORAD_CAT_ID":"47810","RA_OF_ASC_NODE":"2.9573","OBJECT_ID":"2021-018Z","MEAN_MOTION":"15.06394224","TLE_LINE1":"1 47810U 21018Z   21348.45203053  .00001096  00000-0  92473-4 0  9997","PERIOD":"95.593","INCLINATION":"53.0560","EPOCH":"2021-12-14T10:50:55.437792","COUNTRY_CODE":"US","TIME_SYSTEM":"UTC","LAUNCH_DATE":"2021-03-11","PERIAPSIS":"545.965","MEAN_MOTION_DOT":"0.00001096","ARG_OF_PERICENTER":"61.5549","OBJECT_NAME":"STARLINK-2391","RCS_SIZE":"LARGE","BSTAR":"0.00009247300000","SEMIMAJOR_AXIS":"6925.366","EPHEMERIS_TYPE":"0","CLASSIFICATION_TYPE":"U","OBJECT_TYPE":"PAYLOAD","ELEMENT_SET_NO":"999","SITE":"AFETR","TLE_LINE2":"2 47810  53.0560   2.9573 0001828  61.5549 298.5624 15.06394224 43454","MEAN_MOTION_DDOT":"0.0000000000000","APOAPSIS":"548.497","MEAN_ELEMENT_THEORY":"SGP4","REF_FRAME":"TEME"},{"OBJECT_TYPE":"PAYLOAD","CLASSIFICATION_TYPE":"U","SEMIMAJOR_AXIS":"6925.359","EPHEMERIS_TYPE":"0","APOAPSIS":"548.501","REF_FRAME":"TEME","MEAN_ELEMENT_THEORY":"SGP4","ELEMENT_SET_NO":"999","TLE_LINE2":"2 47811  53.0566 333.3643 0001844  68.4608 291.6578 15.06396482 43865","SITE":"AFETR","MEAN_MOTION_DDOT":"0.0000000000000","LAUNCH_DATE":"2021-03-11","RCS_SIZE":"LARGE","BSTAR":"-0.00000874470000","MEAN_MOTION_DOT":"-0.00000412","PERIAPSIS":"545.947","ARG_OF_PERICENTER":"68.4608","OBJECT_NAME":"STARLINK-2392","TLE_LINE1":"1 47811U 21018AA  21348.35896507 -.00000412  00000-0 -87447-5 0  9998","OBJECT_ID":"2021-018AA","MEAN_MOTION":"15.06396482","RA_OF_ASC_NODE":"333.3643","EPOCH":"2021-12-14T08:36:54.582048","COUNTRY_CODE":"US","TIME_SYSTEM":"UTC","INCLINATION":"53.0566","PERIOD":"95.592","CENTER_NAME":"EARTH","GP_ID":"191695404","DECAY_DATE":null,"FILE":"3240057","MEAN_ANOMALY":"291.6578","ECCENTRICITY":"0.00018440","REV_AT_EPOCH":"4386","NORAD_CAT_ID":"47811"},{"ECCENTRICITY":"0.00016260","NORAD_CAT_ID":"47812","REV_AT_EPOCH":"4339","GP_ID":"191694652","CENTER_NAME":"EARTH","DECAY_DATE":null,"MEAN_ANOMALY":"296.0736","FILE":"3240057","TIME_SYSTEM":"UTC","EPOCH":"2021-12-14T11:06:50.626080","COUNTRY_CODE":"US","PERIOD":"95.592","INCLINATION":"53.0573","TLE_LINE1":"1 47812U 21018AB  21348.46308595 -.00000647  00000-0 -24553-4 0  9994","RA_OF_ASC_NODE":"2.8894","OBJECT_ID":"2021-018AB","MEAN_MOTION":"15.06402036","BSTAR":"-0.00002455300000","RCS_SIZE":"LARGE","PERIAPSIS":"546.081","MEAN_MOTION_DOT":"-0.00000647","OBJECT_NAME":"STARLINK-2393","ARG_OF_PERICENTER":"64.0421","LAUNCH_DATE":"2021-03-11","APOAPSIS":"548.333","MEAN_ELEMENT_THEORY":"SGP4","REF_FRAME":"TEME","TLE_LINE2":"2 47812  53.0573   2.8894 0001626  64.0421 296.0736 15.06402036 43399","SITE":"AFETR","ELEMENT_SET_NO":"999","MEAN_MOTION_DDOT":"0.0000000000000","OBJECT_TYPE":"PAYLOAD","SEMIMAJOR_AXIS":"6925.342","CLASSIFICATION_TYPE":"U","EPHEMERIS_TYPE":"0"},{"BSTAR":"-0.00000995660000","RCS_SIZE":"LARGE","PERIAPSIS":"545.882","MEAN_MOTION_DOT":"-0.00000430","OBJECT_NAME":"STARLINK-2394","ARG_OF_PERICENTER":"61.6869","LAUNCH_DATE":"2021-03-11","APOAPSIS":"548.535","MEAN_ELEMENT_THEORY":"SGP4","REF_FRAME":"TEME","SITE":"AFETR","TLE_LINE2":"2 47813  53.0554 332.9745 0001915  61.6869 298.4313 15.06401646 43877","ELEMENT_SET_NO":"999","MEAN_MOTION_DDOT":"0.0000000000000","OBJECT_TYPE":"PAYLOAD","SEMIMAJOR_AXIS":"6925.344","EPHEMERIS_TYPE":"0","CLASSIFICATION_TYPE":"U","ECCENTRICITY":"0.00019150","NORAD_CAT_ID":"47813","REV_AT_EPOCH":"4387","GP_ID":"191694902","CENTER_NAME":"EARTH","DECAY_DATE":null,"MEAN_ANOMALY":"298.4313","FILE":"3240057","TIME_SYSTEM":"UTC","EPOCH":"2021-12-14T10:44:17.004192","COUNTRY_CODE":"US","INCLINATION":"53.0554","PERIOD":"95.592","TLE_LINE1":"1 47813U 21018AC  21348.44741903 -.00000430  00000-0 -99566-5 0  9994","RA_OF_ASC_NODE":"332.9745","MEAN_MOTION":"15.06401646","OBJECT_ID":"2021-018AC"},{"REV_AT_EPOCH":"4359","NORAD_CAT_ID":"47814","ECCENTRICITY":"0.00016750","GP_ID":"191695154","CENTER_NAME":"EARTH","FILE":"3240057","MEAN_ANOMALY":"303.6521","DECAY_DATE":null,"COUNTRY_CODE":"US","EPOCH":"2021-12-14T09:43:14.884896","TIME_SYSTEM":"UTC","PERIOD":"95.592","INCLINATION":"53.0558","TLE_LINE1":"1 47814U 21018AD  21348.40503339  .00000999  00000-0  85936-4 0  9993","OBJECT_ID":"2021-018AD","MEAN_MOTION":"15.06400311","RA_OF_ASC_NODE":"353.1647","RCS_SIZE":"MEDIUM","BSTAR":"0.00008593600000","ARG_OF_PERICENTER":"56.4628","OBJECT_NAME":"STARLINK-2395","MEAN_MOTION_DOT":"0.00000999","PERIAPSIS":"546.053","LAUNCH_DATE":"2021-03-11","MEAN_ELEMENT_THEORY":"SGP4","REF_FRAME":"TEME","APOAPSIS":"548.373","MEAN_MOTION_DDOT":"0.0000000000000","ELEMENT_SET_NO":"999","SITE":"AFETR","TLE_LINE2":"2 47814  53.0558 353.1647 0001675  56.4628 303.6521 15.06400311 43593","OBJECT_TYPE":"PAYLOAD","SEMIMAJOR_AXIS":"6925.348","EPHEMERIS_TYPE":"0","CLASSIFICATION_TYPE":"U"}];
